CELESTIS-02 & TAURUS R/B
1 25160U 98007D   25064.36653363  .00000129  00000+0  11392-3 0  9990
2 25160 108.0072 105.9976 0063310 215.7516 154.8913 14.22276400403850
